[
    {
        "Altitude(m)": 607897.638589309,
        "Argument of Periapsis(deg)": 0.0,
        "Eccentricity": 0.0,
        "Inclination(deg)": 60.0,
        "Latitude(deg)": -14.29306957861569,
        "Longitude(deg)": -43.38122519562085,
        "Mean Anomaly(deg)": -16.363600000000062,
        "RAAN(deg)": 65.0,
        "Satellite Name": "Test1 307",
        "Satellite Number": 307,
        "Semi-Major Axis(m)": 6980739.136638005,
        "Time(s)": 0
    },
    {
        "Altitude(m)": 607750.8389835719,
        "Argument of Periapsis(deg)": 0.00010418945913296404,
        "Eccentricity": 0.0,
        "Inclination(deg)": 60.0,
        "Latitude(deg)": -13.75891059259969,
        "Longitude(deg)": -43.094156871024836,
        "Mean Anomaly(deg)": -15.743493854538173,
        "RAAN(deg)": 64.99957995086025,
        "Satellite Name": "Test1 307",
        "Satellite Number": 307,
        "Semi-Major Axis(m)": 6980739.136638005,
        "Time(s)": 10
    }
]